{"jsonrpc": "2.0", "id": null, "result": {"error_code": 0, "error_msg": "", "response": {"signature": "7bcef2cc40af4473ad9865d7c235e5fa", "airline": {"country": {"AF": {"name": "Afghanistan", "code": "AF", "phone_code": 93}, "AL": {"name": "Albania", "code": "AL", "phone_code": 355}, "DZ": {"name": "Algeria", "code": "DZ", "phone_code": 213}, "AS": {"name": "American Samoa", "code": "AS", "phone_code": 1684}, "AD": {"name": "Andorra", "code": "AD", "phone_code": 376}, "AO": {"name": "Angola", "code": "AO", "phone_code": 244}, "AI": {"name": "Anguilla", "code": "AI", "phone_code": 1264}, "AQ": {"name": "Antarctica", "code": "AQ", "phone_code": 672}, "AG": {"name": "Antigua and Barbuda", "code": "AG", "phone_code": 1268}, "AR": {"name": "Argentina", "code": "AR", "phone_code": 54}, "AM": {"name": "Armenia", "code": "AM", "phone_code": 374}, "AW": {"name": "Aruba", "code": "AW", "phone_code": 297}, "AU": {"name": "Australia", "code": "AU", "phone_code": 61}, "AT": {"name": "Austria", "code": "AT", "phone_code": 43}, "AZ": {"name": "Azerbaijan", "code": "AZ", "phone_code": 994}, "BS": {"name": "Bahamas", "code": "BS", "phone_code": 1242}, "BH": {"name": "Bahrain", "code": "BH", "phone_code": 973}, "BD": {"name": "Bangladesh", "code": "BD", "phone_code": 880}, "BB": {"name": "Barbados", "code": "BB", "phone_code": 1246}, "BY": {"name": "Belarus", "code": "BY", "phone_code": 375}, "BE": {"name": "Belgium", "code": "BE", "phone_code": 32}, "BZ": {"name": "Belize", "code": "BZ", "phone_code": 501}, "BJ": {"name": "Benin", "code": "BJ", "phone_code": 229}, "BM": {"name": "Bermuda", "code": "BM", "phone_code": 1441}, "BT": {"name": "Bhutan", "code": "BT", "phone_code": 975}, "BO": {"name": "Bolivia", "code": "BO", "phone_code": 591}, "BQ": {"name": "Bonaire, Sint Eustatius and Saba", "code": "BQ", "phone_code": 599}, "BA": {"name": "Bosnia and Herzegovina", "code": "BA", "phone_code": 387}, "BW": {"name": "Botswana", "code": "BW", "phone_code": 267}, "BV": {"name": "Bouvet Island", "code": "BV", "phone_code": 55}, "BR": {"name": "Brazil", "code": "BR", "phone_code": 55}, "IO": {"name": "British Indian Ocean Territory", "code": "IO", "phone_code": 246}, "BN": {"name": "Brunei Darussalam", "code": "BN", "phone_code": 673}, "BG": {"name": "Bulgaria", "code": "BG", "phone_code": 359}, "BF": {"name": "Burkina Faso", "code": "BF", "phone_code": 226}, "BI": {"name": "Burundi", "code": "BI", "phone_code": 257}, "KH": {"name": "Cambodia", "code": "KH", "phone_code": 855}, "CM": {"name": "Cameroon", "code": "CM", "phone_code": 237}, "CA": {"name": "Canada", "code": "CA", "phone_code": 1}, "CV": {"name": "Cape Verde", "code": "CV", "phone_code": 238}, "KY": {"name": "Cayman Islands", "code": "KY", "phone_code": 1345}, "CF": {"name": "Central African Republic", "code": "CF", "phone_code": 236}, "TD": {"name": "Chad", "code": "TD", "phone_code": 235}, "CL": {"name": "Chile", "code": "CL", "phone_code": 56}, "CN": {"name": "China", "code": "CN", "phone_code": 86}, "CX": {"name": "Christmas Island", "code": "CX", "phone_code": 61}, "CC": {"name": "Cocos (Keeling) Islands", "code": "CC", "phone_code": 61}, "CO": {"name": "Colombia", "code": "CO", "phone_code": 57}, "KM": {"name": "Comoros", "code": "KM", "phone_code": 269}, "CG": {"name": "Congo", "code": "CG", "phone_code": 243}, "CK": {"name": "Cook Islands", "code": "CK", "phone_code": 682}, "CR": {"name": "Costa Rica", "code": "CR", "phone_code": 506}, "HR": {"name": "Croatia", "code": "HR", "phone_code": 385}, "CU": {"name": "Cuba", "code": "CU", "phone_code": 53}, "CW": {"name": "Cura\u00e7ao", "code": "CW", "phone_code": 599}, "CY": {"name": "Cyprus", "code": "CY", "phone_code": 357}, "CZ": {"name": "Czech Republic", "code": "CZ", "phone_code": 420}, "CI": {"name": "C\u00f4te d'Ivoire", "code": "CI", "phone_code": 225}, "CD": {"name": "Democratic Republic of the Congo", "code": "CD", "phone_code": 242}, "DK": {"name": "Denmark", "code": "DK", "phone_code": 45}, "DJ": {"name": "Djibouti", "code": "DJ", "phone_code": 253}, "DM": {"name": "Dominica", "code": "DM", "phone_code": 1767}, "DO": {"name": "Dominican Republic", "code": "DO", "phone_code": 1849}, "EC": {"name": "Ecuador", "code": "EC", "phone_code": 593}, "EG": {"name": "Egypt", "code": "EG", "phone_code": 20}, "SV": {"name": "El Salvador", "code": "SV", "phone_code": 503}, "GQ": {"name": "Equatorial Guinea", "code": "GQ", "phone_code": 240}, "ER": {"name": "Eritrea", "code": "ER", "phone_code": 291}, "EE": {"name": "Estonia", "code": "EE", "phone_code": 372}, "ET": {"name": "Ethiopia", "code": "ET", "phone_code": 251}, "FK": {"name": "Falkland Islands", "code": "FK", "phone_code": 500}, "FO": {"name": "Faroe Islands", "code": "FO", "phone_code": 298}, "FJ": {"name": "Fiji", "code": "FJ", "phone_code": 679}, "FI": {"name": "Finland", "code": "FI", "phone_code": 358}, "FR": {"name": "France", "code": "FR", "phone_code": 33}, "GF": {"name": "French Guiana", "code": "GF", "phone_code": 594}, "PF": {"name": "French Polynesia", "code": "PF", "phone_code": 689}, "TF": {"name": "French Southern Territories", "code": "TF", "phone_code": 262}, "GA": {"name": "Gabon", "code": "GA", "phone_code": 241}, "GM": {"name": "Gambia", "code": "GM", "phone_code": 220}, "GE": {"name": "Georgia", "code": "GE", "phone_code": 995}, "DE": {"name": "Germany", "code": "DE", "phone_code": 49}, "GH": {"name": "Ghana", "code": "GH", "phone_code": 233}, "GI": {"name": "Gibraltar", "code": "GI", "phone_code": 350}, "GR": {"name": "Greece", "code": "GR", "phone_code": 30}, "GL": {"name": "Greenland", "code": "GL", "phone_code": 299}, "GD": {"name": "Grenada", "code": "GD", "phone_code": 1473}, "GP": {"name": "Guadeloupe", "code": "GP", "phone_code": 590}, "GU": {"name": "Guam", "code": "GU", "phone_code": 1671}, "GT": {"name": "Guatemala", "code": "GT", "phone_code": 502}, "GG": {"name": "Guernsey", "code": "GG", "phone_code": 44}, "GN": {"name": "Guinea", "code": "GN", "phone_code": 224}, "GW": {"name": "Guinea-Bissau", "code": "GW", "phone_code": 245}, "GY": {"name": "Guyana", "code": "GY", "phone_code": 592}, "HT": {"name": "Haiti", "code": "HT", "phone_code": 509}, "HM": {"name": "Heard Island and McDonald Islands", "code": "HM", "phone_code": 672}, "VA": {"name": "Holy See (Vatican City State)", "code": "VA", "phone_code": 379}, "HN": {"name": "Honduras", "code": "HN", "phone_code": 504}, "HK": {"name": "Hong Kong", "code": "HK", "phone_code": 852}, "HU": {"name": "Hungary", "code": "HU", "phone_code": 36}, "IS": {"name": "Iceland", "code": "IS", "phone_code": 354}, "IN": {"name": "India", "code": "IN", "phone_code": 91}, "ID": {"name": "Indonesia", "code": "ID", "phone_code": 62}, "IR": {"name": "Iran", "code": "IR", "phone_code": 98}, "IQ": {"name": "Iraq", "code": "IQ", "phone_code": 964}, "IE": {"name": "Ireland", "code": "IE", "phone_code": 353}, "IM": {"name": "Isle of Man", "code": "IM", "phone_code": 44}, "IL": {"name": "Israel", "code": "IL", "phone_code": 972}, "IT": {"name": "Italy", "code": "IT", "phone_code": 39}, "JM": {"name": "Jamaica", "code": "JM", "phone_code": 1876}, "JP": {"name": "Japan", "code": "JP", "phone_code": 81}, "JE": {"name": "Jersey", "code": "JE", "phone_code": 44}, "JO": {"name": "Jordan", "code": "JO", "phone_code": 962}, "KZ": {"name": "Kazakhstan", "code": "KZ", "phone_code": 7}, "KE": {"name": "Kenya", "code": "KE", "phone_code": 254}, "KI": {"name": "Kiribati", "code": "KI", "phone_code": 686}, "XK": {"name": "Kosovo", "code": "XK", "phone_code": 383}, "KW": {"name": "Kuwait", "code": "KW", "phone_code": 965}, "KG": {"name": "Kyrgyzstan", "code": "KG", "phone_code": 996}, "LA": {"name": "Laos", "code": "LA", "phone_code": 856}, "LV": {"name": "Latvia", "code": "LV", "phone_code": 371}, "LB": {"name": "Lebanon", "code": "LB", "phone_code": 961}, "LS": {"name": "Lesotho", "code": "LS", "phone_code": 266}, "LR": {"name": "Liberia", "code": "LR", "phone_code": 231}, "LY": {"name": "Libya", "code": "LY", "phone_code": 218}, "LI": {"name": "Liechtenstein", "code": "LI", "phone_code": 423}, "LT": {"name": "Lithuania", "code": "LT", "phone_code": 370}, "LU": {"name": "Luxembourg", "code": "LU", "phone_code": 352}, "MO": {"name": "Macau", "code": "MO", "phone_code": 853}, "MK": {"name": "Macedonia, the former Yugoslav Republic of", "code": "MK", "phone_code": 389}, "MG": {"name": "Madagascar", "code": "MG", "phone_code": 261}, "MW": {"name": "Malawi", "code": "MW", "phone_code": 265}, "MY": {"name": "Malaysia", "code": "MY", "phone_code": 60}, "MV": {"name": "Maldives", "code": "MV", "phone_code": 960}, "ML": {"name": "Mali", "code": "ML", "phone_code": 223}, "MT": {"name": "Malta", "code": "MT", "phone_code": 356}, "MH": {"name": "Marshall Islands", "code": "MH", "phone_code": 692}, "MQ": {"name": "Martinique", "code": "MQ", "phone_code": 596}, "MR": {"name": "Mauritania", "code": "MR", "phone_code": 222}, "MU": {"name": "Mauritius", "code": "MU", "phone_code": 230}, "YT": {"name": "Mayotte", "code": "YT", "phone_code": 262}, "MX": {"name": "Mexico", "code": "MX", "phone_code": 52}, "FM": {"name": "Micronesia", "code": "FM", "phone_code": 691}, "MD": {"name": "Moldova", "code": "MD", "phone_code": 373}, "MC": {"name": "Monaco", "code": "MC", "phone_code": 377}, "MN": {"name": "Mongolia", "code": "MN", "phone_code": 976}, "ME": {"name": "Montenegro", "code": "ME", "phone_code": 382}, "MS": {"name": "Montserrat", "code": "MS", "phone_code": 1664}, "MA": {"name": "Morocco", "code": "MA", "phone_code": 212}, "MZ": {"name": "Mozambique", "code": "MZ", "phone_code": 258}, "MM": {"name": "Myanmar", "code": "MM", "phone_code": 95}, "NA": {"name": "Namibia", "code": "NA", "phone_code": 264}, "NR": {"name": "Nauru", "code": "NR", "phone_code": 674}, "NP": {"name": "Nepal", "code": "NP", "phone_code": 977}, "NL": {"name": "Netherlands", "code": "NL", "phone_code": 31}, "NC": {"name": "New Caledonia", "code": "NC", "phone_code": 687}, "NZ": {"name": "New Zealand", "code": "NZ", "phone_code": 64}, "NI": {"name": "Nicaragua", "code": "NI", "phone_code": 505}, "NE": {"name": "Niger", "code": "NE", "phone_code": 227}, "NG": {"name": "Nigeria", "code": "NG", "phone_code": 234}, "NU": {"name": "Niue", "code": "NU", "phone_code": 683}, "NF": {"name": "Norfolk Island", "code": "NF", "phone_code": 672}, "KP": {"name": "North Korea", "code": "KP", "phone_code": 850}, "MP": {"name": "Northern Mariana Islands", "code": "MP", "phone_code": 1670}, "NO": {"name": "Norway", "code": "NO", "phone_code": 47}, "OM": {"name": "Oman", "code": "OM", "phone_code": 968}, "PK": {"name": "Pakistan", "code": "PK", "phone_code": 92}, "PW": {"name": "Palau", "code": "PW", "phone_code": 680}, "PA": {"name": "Panama", "code": "PA", "phone_code": 507}, "PG": {"name": "Papua New Guinea", "code": "PG", "phone_code": 675}, "PY": {"name": "Paraguay", "code": "PY", "phone_code": 595}, "PE": {"name": "Peru", "code": "PE", "phone_code": 51}, "PH": {"name": "Philippines", "code": "PH", "phone_code": 63}, "PN": {"name": "Pitcairn Islands", "code": "PN", "phone_code": 64}, "PL": {"name": "Poland", "code": "PL", "phone_code": 48}, "PT": {"name": "Portugal", "code": "PT", "phone_code": 351}, "PR": {"name": "Puerto Rico", "code": "PR", "phone_code": 1939}, "QA": {"name": "Qatar", "code": "QA", "phone_code": 974}, "RO": {"name": "Romania", "code": "RO", "phone_code": 40}, "RU": {"name": "Russian Federation", "code": "RU", "phone_code": 7}, "RW": {"name": "Rwanda", "code": "RW", "phone_code": 250}, "RE": {"name": "R\u00e9union", "code": "RE", "phone_code": 262}, "BL": {"name": "Saint Barth\u00e9l\u00e9my", "code": "BL", "phone_code": 590}, "SH": {"name": "Saint Helena, Ascension and Tristan da Cunha", "code": "SH", "phone_code": 290}, "KN": {"name": "Saint Kitts and Nevis", "code": "KN", "phone_code": 1869}, "LC": {"name": "Saint Lucia", "code": "LC", "phone_code": 1758}, "MF": {"name": "Saint Martin (French part)", "code": "MF", "phone_code": 590}, "PM": {"name": "Saint Pierre and Miquelon", "code": "PM", "phone_code": 508}, "VC": {"name": "Saint Vincent and the Grenadines", "code": "VC", "phone_code": 1784}, "WS": {"name": "Samoa", "code": "WS", "phone_code": 685}, "SM": {"name": "San Marino", "code": "SM", "phone_code": 378}, "SA": {"name": "Saudi Arabia", "code": "SA", "phone_code": 966}, "SN": {"name": "Senegal", "code": "SN", "phone_code": 221}, "RS": {"name": "Serbia", "code": "RS", "phone_code": 381}, "SC": {"name": "Seychelles", "code": "SC", "phone_code": 248}, "SL": {"name": "Sierra Leone", "code": "SL", "phone_code": 232}, "SG": {"name": "Singapore", "code": "SG", "phone_code": 65}, "SX": {"name": "Sint Maarten (Dutch part)", "code": "SX", "phone_code": 1721}, "SK": {"name": "Slovakia", "code": "SK", "phone_code": 421}, "SI": {"name": "Slovenia", "code": "SI", "phone_code": 386}, "SB": {"name": "Solomon Islands", "code": "SB", "phone_code": 677}, "SO": {"name": "Somalia", "code": "SO", "phone_code": 252}, "ZA": {"name": "South Africa", "code": "ZA", "phone_code": 27}, "GS": {"name": "South Georgia and the South Sandwich Islands", "code": "GS", "phone_code": 500}, "KR": {"name": "South Korea", "code": "KR", "phone_code": 82}, "SS": {"name": "South Sudan", "code": "SS", "phone_code": 211}, "ES": {"name": "Spain", "code": "ES", "phone_code": 34}, "LK": {"name": "Sri Lanka", "code": "LK", "phone_code": 94}, "PS": {"name": "State of Palestine", "code": "PS", "phone_code": 970}, "SD": {"name": "Sudan", "code": "SD", "phone_code": 249}, "SR": {"name": "Suriname", "code": "SR", "phone_code": 597}, "SJ": {"name": "Svalbard and Jan Mayen", "code": "SJ", "phone_code": 47}, "SZ": {"name": "Swaziland", "code": "SZ", "phone_code": 268}, "SE": {"name": "Sweden", "code": "SE", "phone_code": 46}, "CH": {"name": "Switzerland", "code": "CH", "phone_code": 41}, "SY": {"name": "Syria", "code": "SY", "phone_code": 963}, "ST": {"name": "S\u00e3o Tom\u00e9 and Pr\u00edncipe", "code": "ST", "phone_code": 239}, "TW": {"name": "Taiwan", "code": "TW", "phone_code": 886}, "TJ": {"name": "Tajikistan", "code": "TJ", "phone_code": 992}, "TZ": {"name": "Tanzania", "code": "TZ", "phone_code": 255}, "TH": {"name": "Thailand", "code": "TH", "phone_code": 66}, "TL": {"name": "Timor-Leste", "code": "TL", "phone_code": 670}, "TG": {"name": "Togo", "code": "TG", "phone_code": 228}, "TK": {"name": "Tokelau", "code": "TK", "phone_code": 690}, "TO": {"name": "Tonga", "code": "TO", "phone_code": 676}, "TT": {"name": "Trinidad and Tobago", "code": "TT", "phone_code": 1868}, "TN": {"name": "Tunisia", "code": "TN", "phone_code": 216}, "TR": {"name": "Turkey", "code": "TR", "phone_code": 90}, "TM": {"name": "Turkmenistan", "code": "TM", "phone_code": 993}, "TC": {"name": "Turks and Caicos Islands", "code": "TC", "phone_code": 1649}, "TV": {"name": "Tuvalu", "code": "TV", "phone_code": 688}, "UM": {"name": "USA Minor Outlying Islands", "code": "UM", "phone_code": 699}, "UG": {"name": "Uganda", "code": "UG", "phone_code": 256}, "UA": {"name": "Ukraine", "code": "UA", "phone_code": 380}, "AE": {"name": "United Arab Emirates", "code": "AE", "phone_code": 971}, "GB": {"name": "United Kingdom", "code": "GB", "phone_code": 44}, "US": {"name": "United States", "code": "US", "phone_code": 1}, "UY": {"name": "Uruguay", "code": "UY", "phone_code": 598}, "UZ": {"name": "Uzbekistan", "code": "UZ", "phone_code": 998}, "VU": {"name": "Vanuatu", "code": "VU", "phone_code": 678}, "VE": {"name": "Venezuela", "code": "VE", "phone_code": 58}, "VN": {"name": "Vietnam", "code": "VN", "phone_code": 84}, "VG": {"name": "Virgin Islands (British)", "code": "VG", "phone_code": 1284}, "VI": {"name": "Virgin Islands (USA)", "code": "VI", "phone_code": 1340}, "WF": {"name": "Wallis and Futuna", "code": "WF", "phone_code": 681}, "EH": {"name": "Western Sahara", "code": "EH", "phone_code": 212}, "YE": {"name": "Yemen", "code": "YE", "phone_code": 967}, "ZM": {"name": "Zambia", "code": "ZM", "phone_code": 260}, "ZW": {"name": "Zimbabwe", "code": "ZW", "phone_code": 263}, "AX": {"name": "\u00c5land Islands", "code": "AX", "phone_code": 358}}, "destination": {"AU": [{"name": "Adelaide Intl", "code": "ADL", "city": "Adelaide", "timezone_hour": 9.5}, {"name": "Brisbane Intl", "code": "BNE", "city": "Brisbane", "timezone_hour": 10.0}, {"name": "Cairns Intl", "code": "CNS", "city": "Cairns", "timezone_hour": 10.0}, {"name": "Canberra", "code": "CBR", "city": "Canberra", "timezone_hour": 10.0}, {"name": "Darwin Intl", "code": "DRW", "city": "Darwin", "timezone_hour": 9.5}, {"name": "Melbourne Intl", "code": "MEL", "city": "Melbourne", "timezone_hour": 10.0}, {"name": "Perth Intl", "code": "PER", "city": "Perth", "timezone_hour": 8.0}, {"name": "Sydney Intl", "code": "SYD", "city": "Sydney", "timezone_hour": 10.0}], "IN": [{"name": "Ahmedabad", "code": "AMD", "city": "Ahmedabad", "timezone_hour": 5.5}, {"name": "Bangalore", "code": "BLR", "city": "Bangalore", "timezone_hour": 5.5}, {"name": "Coimbatore", "code": "CJB", "city": "Coimbatore", "timezone_hour": 5.5}, {"name": "Indira Gandhi Intl", "code": "DEL", "city": "Delhi", "timezone_hour": 5.5}, {"name": "Hyderabad", "code": "HYD", "city": "Hyderabad", "timezone_hour": 5.5}, {"name": "Cochin", "code": "COK", "city": "Kochi", "timezone_hour": 5.5}, {"name": "Netaji Subhash Chandra Bose Intl", "code": "CCU", "city": "Kolkata", "timezone_hour": 5.5}, {"name": "Chennai Intl", "code": "MAA", "city": "Madras", "timezone_hour": 5.5}, {"name": "Chhatrapati Shivaji Intl", "code": "BOM", "city": "Mumbai", "timezone_hour": 5.5}, {"name": "Vishakhapatnam", "code": "VTZ", "city": "Vishakhapatnam", "timezone_hour": 5.5}], "NL": [{"name": "Schiphol", "code": "AMS", "city": "Amsterdam", "timezone_hour": 1.0}], "NZ": [{"name": "Auckland Intl", "code": "AKL", "city": "Auckland", "timezone_hour": 12.0}, {"name": "Christchurch Intl", "code": "CHC", "city": "Christchurch", "timezone_hour": 12.0}, {"name": "Wellington Intl", "code": "WLG", "city": "Wellington", "timezone_hour": 12.0}], "MM": [{"name": "Brunei Intl", "code": "BWN", "city": "Bandar Seri Begawan", "timezone_hour": 8.0}, {"name": "Mandalay Intl", "code": "MDL", "city": "Mandalay", "timezone_hour": 6.5}, {"name": "Yangon Intl", "code": "RGN", "city": "Yangon", "timezone_hour": 6.5}], "TH": [{"name": "Suvarnabhumi Intl", "code": "BKK", "city": "Bangkok", "timezone_hour": 7.0}, {"name": "Chiang Mai Intl", "code": "CNX", "city": "Chiang Mai", "timezone_hour": 7.0}, {"name": "Samui", "code": "USM", "city": "Ko Samui", "timezone_hour": 7.0}, {"name": "Phuket Intl", "code": "HKT", "city": "Phuket", "timezone_hour": 7.0}], "ES": [{"name": "Barcelona", "code": "BCN", "city": "Barcelona", "timezone_hour": 1.0}], "CN": [{"name": "All Airports", "code": "BJS", "city": "Beijing", "timezone_hour": 8.0}, {"name": "Gimhae International Airport", "code": "PUS", "city": "Busan", "timezone_hour": 9.0}, {"name": "Shuangliu", "code": "CTU", "city": "Chengdu", "timezone_hour": 8.0}, {"name": "Jiangbei", "code": "CKG", "city": "Chongqing", "timezone_hour": 8.0}, {"name": "Baiyun Intl", "code": "CAN", "city": "Guangzhou", "timezone_hour": 8.0}, {"name": "Hongqiao Intl", "code": "SHA", "city": "Shanghai", "timezone_hour": 8.0}, {"name": "Baoan Intl", "code": "SZX", "city": "Shenzhen", "timezone_hour": 8.0}, {"name": "Xiamen Gaoqi International Airport", "code": "XMN", "city": "Xiamen Shi", "timezone_hour": 8.0}], "ZA": [{"name": "Cape Town Intl", "code": "CPT", "city": "Cape Town", "timezone_hour": 2.0}, {"name": "Johannesburg Intl", "code": "JNB", "city": "Johannesburg", "timezone_hour": 2.0}], "PH": [{"name": "Mactan Cebu Intl", "code": "CEB", "city": "Cebu", "timezone_hour": 8.0}, {"name": "Francisco Bangoy International", "code": "DVO", "city": "Davao", "timezone_hour": 8.0}, {"name": "Ninoy Aquino Intl", "code": "MNL", "city": "Manila", "timezone_hour": 8.0}], "LK": [{"name": "Bandaranaike Intl Colombo", "code": "CMB", "city": "Colombo", "timezone_hour": 5.5}], "DK": [{"name": "Kastrup", "code": "CPH", "city": "Copenhagen", "timezone_hour": 1.0}], "VN": [{"name": "Danang Intl", "code": "DAD", "city": "Danang", "timezone_hour": 7.0}, {"name": "Noibai Intl", "code": "HAN", "city": "Hanoi", "timezone_hour": 7.0}, {"name": "Tansonnhat Intl", "code": "SGN", "city": "Ho Chi Minh City", "timezone_hour": 7.0}], "BD": [{"name": "Zia Intl", "code": "DAC", "city": "Dhaka", "timezone_hour": 6.0}], "AE": [{"name": "Dubai Intl", "code": "DXB", "city": "Dubai", "timezone_hour": 4.0}], "DE": [{"name": "Dusseldorf", "code": "DUS", "city": "Duesseldorf", "timezone_hour": 1.0}, {"name": "Frankfurt Main", "code": "FRA", "city": "Frankfurt", "timezone_hour": 1.0}, {"name": "Franz Josef Strauss", "code": "MUC", "city": "Munich", "timezone_hour": 1.0}], "JP": [{"name": "Fukuoka", "code": "FUK", "city": "Fukuoka", "timezone_hour": 9.0}, {"name": "Hiroshima", "code": "HIJ", "city": "Hiroshima", "timezone_hour": 9.0}, {"name": "Chubu Centrair Intl", "code": "NGO", "city": "Nagoya", "timezone_hour": 9.0}, {"name": "Haneda International Airport", "code": "HND", "city": "Tokyo", "timezone_hour": 9.0}, {"name": "Narita International Airport", "code": "NRT", "city": "Tokyo", "timezone_hour": 9.0}], "HK": [{"name": "Hong Kong Intl", "code": "HKG", "city": "Hong Kong", "timezone_hour": 8.0}], "US": [{"name": "William P Hobby", "code": "HOU", "city": "Houston", "timezone_hour": -6.0}, {"name": "Los Angeles Intl", "code": "LAX", "city": "Los Angeles", "timezone_hour": -8.0}, {"name": "John F Kennedy Intl", "code": "JFK", "city": "New York", "timezone_hour": -5.0}, {"name": "San Francisco Intl", "code": "SFO", "city": "San Francisco", "timezone_hour": -8.0}, {"name": "Seattle\u2013Tacoma International Airport", "code": "SEA", "city": "Seatac", "timezone_hour": -8.0}], "TR": [{"name": "Ataturk", "code": "IST", "city": "Istanbul", "timezone_hour": 2.0}], "NP": [{"name": "Tribhuvan Intl", "code": "KTM", "city": "Kathmandu", "timezone_hour": 5.75}], "MY": [{"name": "Kota Kinabalu Intl", "code": "BKI", "city": "Kota Kinabalu", "timezone_hour": 8.0}, {"name": "Kuala Lumpur Intl", "code": "KUL", "city": "Kuala Lumpur", "timezone_hour": 8.0}, {"name": "Penang Intl", "code": "PEN", "city": "Penang", "timezone_hour": 8.0}], "GB": [{"name": "All Airports", "code": "LON", "city": "London", "timezone_hour": 0}, {"name": "Manchester", "code": "MAN", "city": "Manchester", "timezone_hour": 0}], "MV": [{"name": "Male Intl", "code": "MLE", "city": "Male", "timezone_hour": 5.0}], "IT": [{"name": "All Airports", "code": "MIL", "city": "Milan", "timezone_hour": 1.0}], "RU": [{"name": "MOW", "code": "MOW", "city": "Moscow", "timezone_hour": 4.0}], "FR": [{"name": "All Airports", "code": "PAR", "city": "Paris", "timezone_hour": 1.0}], "KH": [{"name": "Phnom Penh Intl", "code": "PNH", "city": "Phnom-penh", "timezone_hour": 7.0}, {"name": "Siem Reap", "code": "REP", "city": "Siem-reap", "timezone_hour": 7.0}], "KR": [{"name": "Gimpo International Airpot", "code": "SEL", "city": "Seoul", "timezone_hour": 9.0}], "SG": [{"name": "Changi Intl", "code": "SIN", "city": "Singapore", "timezone_hour": 8.0}], "SE": [{"name": "Stockholm Cruise Port", "code": "STO", "city": "Stockholm", "timezone_hour": 1.0}], "ID": [{"name": "Juanda International Airport", "code": "SUB", "city": "Surabaya", "timezone_hour": 7.0}], "TW": [{"name": "Taoyuan Intl", "code": "TPE", "city": "Taipei", "timezone_hour": 8.0}], "CH": [{"name": "Zurich", "code": "ZRH", "city": "Zurich", "timezone_hour": 1.0}]}}}, "sid": "session_id=2608cf1c39bec055d2fa66859ea677e117554d51; Expires=Wed, 20-Nov-2019 03:25:06 GMT; Max-Age=7776000; HttpOnly; Path=/", "cookies": {"session_id": "2608cf1c39bec055d2fa66859ea677e117554d51"}}}